[{"OBJECT_NAME":"ONEWEB-0043","OBJECT_ID":"2020-008U","EPOCH":"2026-03-09T22:32:22.625664","MEAN_MOTION":13.10375574,"ECCENTRICITY":0.0001265,"INCLINATION":87.8781,"RA_OF_ASC_NODE":56.0239,"ARG_OF_PERICENTER":82.5703,"MEAN_ANOMALY":277.5569,"EPHEMERIS_TYPE":0,"CLASSIFICATION_TYPE":"U","NORAD_CAT_ID":45149,"ELEMENT_SET_NO":999,"REV_AT_EPOCH":29518,"BSTAR":0.0010916452,"MEAN_MOTION_DOT":3.94e-6,"MEAN_MOTION_DDOT":0},{"OBJECT_NAME":"UNKNOWN","OBJECT_ID":"","EPOCH":"2026-03-08T06:29:59.000064","MEAN_MOTION":13.20472338,"ECCENTRICITY":0.0169693,"INCLINATION":102.4115,"RA_OF_ASC_NODE":189.4901,"ARG_OF_PERICENTER":33.9798,"MEAN_ANOMALY":327.2043,"EPHEMERIS_TYPE":0,"CLASSIFICATION_TYPE":"U","NORAD_CAT_ID":81899,"ELEMENT_SET_NO":999,"REV_AT_EPOCH":59027,"BSTAR":0.0049166,"MEAN_MOTION_DOT":2.09e-5,"MEAN_MOTION_DDOT":0}]
